[{"OBJECT_NAME":"YAOGAN-39 01C","OBJECT_ID":"2023-130E","EPOCH":"2026-03-10T00:21:12.086208","MEAN_MOTION":15.17357748,"ECCENTRICITY":0.00019778,"INCLINATION":34.9938,"RA_OF_ASC_NODE":50.1324,"ARG_OF_PERICENTER":224.3051,"MEAN_ANOMALY":135.7503,"EPHEMERIS_TYPE":0,"CLASSIFICATION_TYPE":"U","NORAD_CAT_ID":57731,"ELEMENT_SET_NO":999,"REV_AT_EPOCH":14039,"BSTAR":0.00036987259,"MEAN_MOTION_DOT":7.529e-5,"MEAN_MOTION_DDOT":0},{"OBJECT_NAME":"FLOCK 4H-35","OBJECT_ID":"2025-276CA","EPOCH":"2026-03-09T10:26:28.836672","MEAN_MOTION":15.19480603,"ECCENTRICITY":4.762e-5,"INCLINATION":97.4266,"RA_OF_ASC_NODE":143.8032,"ARG_OF_PERICENTER":262.5938,"MEAN_ANOMALY":97.5242,"EPHEMERIS_TYPE":0,"CLASSIFICATION_TYPE":"U","NORAD_CAT_ID":66738,"ELEMENT_SET_NO":999,"REV_AT_EPOCH":1457,"BSTAR":0.00040654248,"MEAN_MOTION_DOT":8.562e-5,"MEAN_MOTION_DDOT":0}]
